DMSP 5D-3 F16 (USA 172) 
1 28054U 03048A   26129.90904347  .00000003  00000+0  25195-4 0  9998
2 28054  98.9915 153.4797 0005950 252.6221 234.4364 14.14479323164079
METEOSAT-9 (MSG-2)      
1 28912U 05049B   26129.83621565  .00000136  00000+0  00000+0 0  9994
2 28912   9.2759  54.5366 0001203 345.1554 174.7239  1.00267677  6610
DMSP 5D-3 F17 (USA 191) 
1 29522U 06050A   26129.98546534  .00000064  00000+0  55589-4 0  9990
2 29522  98.7389 137.3364 0010452 158.6927 201.4684 14.14986335  7021
FENGYUN 3A              
1 32958U 08026A   26129.84510611  .00000054  00000+0  45957-4 0  9991
2 32958  98.6867  71.3999 0007720 234.6991 125.3463 14.19563005929964
GOES 14                 
1 35491U 09033A   26129.90198797 -.00000103  00000+0  00000+0 0  9990
2 35491   1.5910  83.4785 0001909 334.5729 297.6998  1.00118119  6207
DMSP 5D-3 F18 (USA 210) 
1 35951U 09057A   26129.88345637  .00000217  00000+0  13545-3 0  9998
2 35951  98.9024 110.7404 0011220   6.2982 353.8330 14.14874586854175
EWS-G2 (GOES 15)        
1 36411U 10008A   26129.93447432  .00000031  00000+0  00000+0 0  9992
2 36411   1.1745  83.5175 0004734  27.8324 156.1276  1.00273661 59253
COMS 1                  
1 36744U 10032A   26129.78121565 -.00000333  00000+0  00000+0 0  9993
2 36744   4.7075  75.8599 0001051 333.9070 227.2230  1.00272810 50705
FENGYUN 3B              
1 37214U 10059A   26129.98520089  .00000167  00000+0  10970-3 0  9996
2 37214  98.9649 175.8317 0021106 296.4797 180.9075 14.14833110802028
SUOMI NPP               
1 37849U 11061A   26129.92552198  .00000061  00000+0  50004-4 0  9990
2 37849  98.7937  71.0672 0002850  79.6445 280.5053 14.19509111753010
METEOSAT-10 (MSG-3)     
1 38552U 12035B   26129.11414275  .00000003  00000+0  00000+0 0  9990
2 38552   4.5795  61.1815 0001992 325.5269 241.3967  1.00270655 50463
METOP-B                 
1 38771U 12049A   26129.89659151  .00000057  00000+0  45754-4 0  9996
2 38771  98.6531 182.1543 0003530  98.1446 262.0132 14.21421917707829
INSAT-3D                
1 39216U 13038B   26129.78147566 -.00000329  00000+0  00000+0 0  9993
2 39216   1.8264  83.0026 0001117 293.1848 262.2658  1.00270961 46690
FENGYUN 3C              
1 39260U 13052A   26129.95062929  .00000067  00000+0  55029-4 0  9990
2 39260  98.4961 105.5868 0015526 130.3346 229.9187 14.15746078653152
METEOR-M 2              
1 40069U 14037A   26129.92364358  .00000080  00000+0  55723-4 0  9997
2 40069  98.5100 107.0231 0006351 138.2421 221.9243 14.21450779613883
HIMAWARI-8              
1 40267U 14060A   26129.78372899 -.00000267  00000+0  00000+0 0  9997
2 40267   0.0394  91.1101 0000963 341.6686 217.6417  1.00271035 42375
FENGYUN 2G              
1 40367U 14090A   26129.84687569 -.00000291  00000+0  00000+0 0  9998
2 40367   5.5422  73.2658 0002586 134.4437  64.5570  1.00267775 41612
METEOSAT-11 (MSG-4)     
1 40732U 15034A   26129.25858918  .00000071  00000+0  00000+0 0  9991
2 40732   3.1054  71.3136 0001606 349.4947 268.6790  1.00268082  6826
ELEKTRO-L 2             
1 41105U 15074A   26129.18252303 -.00000106  00000+0  00000+0 0  9998
2 41105   6.5968  70.9914 0001703 275.5141 291.6863  1.00273480 38116
INSAT-3DR               
1 41752U 16054A   26129.84176234 -.00000068  00000+0  00000+0 0  9993
2 41752   0.1460  87.2905 0011045 192.8696 324.5462  1.00271289 35436
HIMAWARI-9              
1 41836U 16064A   26129.78372899 -.00000265  00000+0  00000+0 0  9994
2 41836   0.0412 109.7181 0000986 313.2939 227.5119  1.00274253 34829
GOES 16                 
1 41866U 16071A   26129.87772916 -.00000082  00000+0  00000+0 0  9996
2 41866   0.2442  85.6474 0001024 273.1435  80.1847  1.00272527 34714
FENGYUN 4A              
1 41882U 16077A   26129.92298264 -.00000346  00000+0  00000+0 0  9998
2 41882   2.2256  80.6703 0008106 144.2840  98.8226  1.00273084 34540
CYGFM05                 
1 41884U 16078A   26129.48612028  .00016698  00000+0  24100-3 0  9997
2 41884  34.9561 156.5167 0007320 155.6650 204.4421 15.55001704522729
CYGFM04                 
1 41885U 16078B   26129.37905766  .00022949  00000+0  28061-3 0  9996
2 41885  34.9319 126.7671 0007517 198.6063 161.4388 15.59376747522936
CYGFM02                 
1 41886U 16078C   26129.38293968  .00023532  00000+0  26173-3 0  9993
2 41886  34.9403 122.2953 0008690 198.9348 161.1055 15.61819541523090
CYGFM01                 
1 41887U 16078D   26129.49099028  .00017075  00000+0  24083-3 0  9990
2 41887  34.9391 157.8441 0006934 149.5963 210.5164 15.55624688522679
CYGFM08                 
1 41888U 16078E   26129.70566996  .00019194  00000+0  24696-3 0  9992
2 41888  34.9426 136.9629 0009065 181.4480 178.6219 15.58043601522962
CYGFM07                 
1 41890U 16078G   26129.66719776  .00019473  00000+0  24980-3 0  9992
2 41890  34.9442 125.5925 0007989 199.6055 160.4363 15.58132569522981
CYGFM03                 
1 41891U 16078H   26129.70218109  .00020115  00000+0  25805-3 0  9994
2 41891  34.9397 127.3108 0007061 189.8868 170.1719 15.58135942522967
FENGYUN 3D              
1 43010U 17072A   26129.94990486 -.00000116  00000+0 -32807-4 0  9997
2 43010  99.0112 103.6870 0002061 127.1543 232.9821 14.19731059439563
NOAA 20 (JPSS-1)        
1 43013U 17073A   26129.93871300  .00000043  00000+0  41509-4 0  9999
2 43013  98.7756  69.7447 0001832  54.3284 305.8062 14.19550463439044
GOES 17                 
1 43226U 18022A   26129.80938244 -.00000173  00000+0  00000+0 0  9998
2 43226   0.8392  86.2378 0000656 321.5966  21.6762  1.00270988 30039
FENGYUN 2H              
1 43491U 18050A   26129.91414260 -.00000120  00000+0  00000+0 0  9994
2 43491   2.9327  79.5001 0001245 140.3975  56.3123  1.00274134 29057
METOP-C                 
1 43689U 18087A   26129.91792770  .00000067  00000+0  50562-4 0  9990
2 43689  98.6665 190.2162 0000256  80.1789 279.9418 14.21501470389396
GEO-KOMPSAT-2A          
1 43823U 18100A   26129.85250905 -.00000335  00000+0  00000+0 0  9994
2 43823   0.0467  94.9621 0002188 338.2439 229.6388  1.00271535 27248
METEOR-M2 2             
1 44387U 19038A   26129.96036339 -.00000137  00000+0 -39545-4 0  9998
2 44387  98.9142 116.6857 0002211 107.5462 252.5958 14.24354568355850
ARKTIKA-M 1             
1 47719U 21016A   26128.11849507 -.00000109  00000+0  00000+0 0  9991
2 47719  63.2274  63.4261 7273377 269.7438  14.8678  2.00605471 37987
FENGYUN 3E              
1 49008U 21062A   26130.00856646 -.00000272  00000+0 -10737-3 0  9992
2 49008  98.7507 133.8425 0001571 154.8718 205.2535 14.19899669251162
GOES 18                 
1 51850U 22021A   26129.63173845  .00000105  00000+0  00000+0 0  9997
2 51850   0.0356  83.6255 0000632  22.8498 211.4070  1.00272326  6204
NOAA 21 (JPSS-2)        
1 54234U 22150A   26129.90240669  .00000034  00000+0  36955-4 0  9992
2 54234  98.7044  69.3379 0001063 349.2912  10.8242 14.19558476181118
METEOSAT-12 (MTG-I1)    
1 54743U 22170C   26129.92336171  .00000001  00000+0  00000+0 0  9996
2 54743   0.7384  24.4077 0000895   0.0083 175.3664  1.00272152 12593
TIANMU-1 03             
1 55973U 23039A   26129.94431682  .00010844  00000+0  22261-3 0  9995
2 55973  97.5228 302.4534 0002302 210.2263 149.8853 15.46205336174924
TIANMU-1 04             
1 55974U 23039B   26129.94805035  .00011618  00000+0  23381-3 0  9997
2 55974  97.5165 301.6098 0003001 211.0429 149.0643 15.46765575174937
TIANMU-1 05             
1 55975U 23039C   26129.98806259  .00010361  00000+0  21326-3 0  9992
2 55975  97.5211 302.1275 0001707 239.8106 120.2974 15.46141641174912
TIANMU-1 06             
1 55976U 23039D   26129.94926978  .00011291  00000+0  22792-3 0  9991
2 55976  97.5218 302.6856 0002074 233.0822 127.0237 15.46685800174938
FENGYUN 3G              
1 56232U 23055A   26129.96143638  .00016759  00000+0  26960-3 0  9996
2 56232  49.9918 183.2142 0006090  20.3417 339.7791 15.53044421174069
METEOR-M2 3             
1 57166U 23091A   26129.94600244 -.00000009  00000+0  14816-4 0  9992
2 57166  98.6112 185.7010 0002770 285.6917  74.3957 14.24043454149077
TIANMU-1 07             
1 57399U 23101A   26129.96029919  .00004383  00000+0  15623-3 0  9992
2 57399  97.2620 181.5139 0000532 238.4943 121.6246 15.29422797155801
TIANMU-1 08             
1 57400U 23101B   26129.92755245  .00004017  00000+0  14327-3 0  9993
2 57400  97.2609 181.2568 0002377 233.4127 126.6895 15.29449991155790
TIANMU-1 09             
1 57401U 23101C   26129.91117322  .00004412  00000+0  15706-3 0  9992
2 57401  97.2568 180.6777 0000959 268.2245  91.8886 15.29464037155792
TIANMU-1 10             
1 57402U 23101D   26129.94356179  .00004514  00000+0  16045-3 0  9991
2 57402  97.2647 181.7206 0002342 259.7599 100.3378 15.29499268155791
FENGYUN 3F              
1 57490U 23111A   26129.92286552  .00000021  00000+0  30381-4 0  9993
2 57490  98.6856 200.6414 0001172 115.7453 244.3844 14.19932275143430
ARKTIKA-M 2             
1 58584U 23198A   26127.88273134  .00000170  00000+0  00000+0 0  9993
2 58584  63.2200 158.8550 6891509 267.5523  18.8212  2.00594955 17510
TIANMU-1 11             
1 58645U 23205A   26129.97506111  .00003781  00000+0  14701-3 0  9994
2 58645  97.3475 152.1402 0010425 132.3625 227.8498 15.26596926131695
TIANMU-1 12             
1 58646U 23205B   26130.00992347  .00004207  00000+0  16357-3 0  9994
2 58646  97.3464 151.9383 0009026 117.3567 242.8592 15.26549136131684
TIANMU-1 13             
1 58647U 23205C   26129.97317438  .00003976  00000+0  15446-3 0  9991
2 58647  97.3492 152.1684 0009471 102.6380 257.5918 15.26603800131670
TIANMU-1 14             
1 58648U 23205D   26129.95927318  .00004047  00000+0  15790-3 0  9996
2 58648  97.3427 151.3672 0009822 105.0685 255.1641 15.26449648131677
TIANMU-1 19             
1 58660U 23208A   26129.92782328  .00006176  00000+0  20878-3 0  9998
2 58660  97.4457 246.0604 0006472  94.4696 265.7285 15.30987725131470
TIANMU-1 20             
1 58661U 23208B   26129.93005242  .00006190  00000+0  20160-3 0  9993
2 58661  97.4398 246.6586 0008626 100.8454 259.3759 15.32178171131561
TIANMU-1 21             
1 58662U 23208C   26129.90940793  .00006864  00000+0  20834-3 0  9996
2 58662  97.4455 249.1566 0008544  95.1608 265.0610 15.34387550131697
TIANMU-1 22             
1 58663U 23208D   26129.96266660  .00005464  00000+0  18780-3 0  9999
2 58663  97.4456 246.0624 0005176 112.2100 247.9691 15.30514371131480
TIANMU-1 15             
1 58700U 24004A   26129.95541964  .00004182  00000+0  16236-3 0  9998
2 58700  97.4681 316.1496 0008403 118.7619 241.4465 15.26621655129945
TIANMU-1 16             
1 58701U 24004B   26129.54446764  .00004460  00000+0  17395-3 0  9992
2 58701  97.4626 315.0194 0007104 122.9757 237.2165 15.26439773129886
TIANMU-1 17             
1 58702U 24004C   26129.98881916  .00004130  00000+0  16173-3 0  9990
2 58702  97.4655 315.9335 0006823 124.3986 235.7899 15.26351340129949
TIANMU-1 18             
1 58703U 24004D   26129.97171999  .00003964  00000+0  15417-3 0  9997
2 58703  97.4672 316.1478 0005459 118.3909 241.7881 15.26615206129944
INSAT-3DS               
1 58990U 24033A   26129.91466260 -.00000147  00000+0  00000+0 0  9998
2 58990   0.0713 257.8918 0001570 156.1612 225.0390  1.00272208 46686
METEOR-M2 4             
1 59051U 24039A   26129.98765933  .00000023  00000+0  29802-4 0  9997
2 59051  98.6989  89.7715 0005954 283.5517  76.4997 14.22425596113830
GOES 19                 
1 60133U 24119A   26129.88353584 -.00000239  00000+0  00000+0 0  9997
2 60133   0.0366  98.4710 0000839   8.8840   3.2232  1.00270399  6589
FENGYUN 3H              
1 65815U 25219A   26129.84826447  .00000038  00000+0  38498-4 0  9993
2 65815  98.6753  71.3672 0001297 104.9514 255.1806 14.19913469 31945
